{
"type": "FeatureCollection",
"name": "pois_with_nodes",
"crs": { "type": "name", "properties": { "name": "urn:ogc:def:crs:EPSG::3857" } },
"features": [
{ "type": "Feature", "properties": { "fclass": "market_place", "nearest_node": "(np.float64(376842.915), np.float64(720919.121))", "snap_distance": 70.660796162001859 }, "geometry": { "type": "Point", "coordinates": [ 376779.992753875034396, 720951.272812652518041 ] } },
{ "type": "Feature", "properties": { "fclass": "market_place", "nearest_node": "(np.float64(377726.413), np.float64(720729.665))", "snap_distance": 19.546977041542604 }, "geometry": { "type": "Point", "coordinates": [ 377732.671052266960032, 720748.183128773933277 ] } },
{ "type": "Feature", "properties": { "fclass": "park", "nearest_node": "(np.float64(378082.368), np.float64(719409.216))", "snap_distance": 19.953264660490831 }, "geometry": { "type": "Point", "coordinates": [ 378102.319140027684625, 719409.507173844962381 ] } },
{ "type": "Feature", "properties": { "fclass": "arts_centre", "nearest_node": "(np.float64(377866.976), np.float64(719466.665))", "snap_distance": 44.75274913609104 }, "geometry": { "type": "Point", "coordinates": [ 377880.408775507065002, 719423.975784764625132 ] } },
{ "type": "Feature", "properties": { "fclass": "pitch", "nearest_node": "(np.float64(377946.581), np.float64(719658.794))", "snap_distance": 42.588508808249308 }, "geometry": { "type": "Point", "coordinates": [ 377906.132736152387224, 719672.125130268046632 ] } },
{ "type": "Feature", "properties": { "fclass": "park", "nearest_node": "(np.float64(378177.602), np.float64(719582.883))", "snap_distance": 30.78194435023839 }, "geometry": { "type": "Point", "coordinates": [ 378183.671229099680204, 719552.70531691936776 ] } },
{ "type": "Feature", "properties": { "fclass": "pitch", "nearest_node": "(np.float64(378445.481), np.float64(719593.19))", "snap_distance": 52.916155257982268 }, "geometry": { "type": "Point", "coordinates": [ 378407.615907474944834, 719556.225770596996881 ] } },
{ "type": "Feature", "properties": { "fclass": "pitch", "nearest_node": "(np.float64(379041.486), np.float64(718432.696))", "snap_distance": 23.956053591506464 }, "geometry": { "type": "Point", "coordinates": [ 379054.347006283991504, 718412.484938151552342 ] } },
{ "type": "Feature", "properties": { "fclass": "lighthouse", "nearest_node": "(np.float64(378250.283), np.float64(719110.83))", "snap_distance": 27.935740945355558 }, "geometry": { "type": "Point", "coordinates": [ 378222.535779301426373, 719107.590036162058823 ] } },
{ "type": "Feature", "properties": { "fclass": "pitch", "nearest_node": "(np.float64(378545.279), np.float64(719066.567))", "snap_distance": 52.498175877020181 }, "geometry": { "type": "Point", "coordinates": [ 378508.001441727683414, 719029.601582111557946 ] } },
{ "type": "Feature", "properties": { "fclass": "stadium", "nearest_node": "(np.float64(378656.331), np.float64(718636.024))", "snap_distance": 90.500702156980907 }, "geometry": { "type": "Point", "coordinates": [ 378711.447893705742899, 718707.804952342063189 ] } },
{ "type": "Feature", "properties": { "fclass": "embassy", "nearest_node": "(np.float64(379032.58), np.float64(718424.171))", "snap_distance": 19.139892205607076 }, "geometry": { "type": "Point", "coordinates": [ 379048.846168944612145, 718414.084017224726267 ] } },
{ "type": "Feature", "properties": { "fclass": "pitch", "nearest_node": "(np.float64(378378.4), np.float64(719042.257))", "snap_distance": 79.165163372118826 }, "geometry": { "type": "Point", "coordinates": [ 378457.428023985936306, 719046.914737284998409 ] } },
{ "type": "Feature", "properties": { "fclass": "pitch", "nearest_node": "(np.float64(378530.04), np.float64(719087.315))", "snap_distance": 63.97435466283784 }, "geometry": { "type": "Point", "coordinates": [ 378473.421791099652182, 719057.530835156096146 ] } },
{ "type": "Feature", "properties": { "fclass": "pitch", "nearest_node": "(np.float64(378530.04), np.float64(719087.315))", "snap_distance": 45.994147217045011 }, "geometry": { "type": "Point", "coordinates": [ 378486.874752651667222, 719071.43346986011602 ] } },
{ "type": "Feature", "properties": { "fclass": "pitch", "nearest_node": "(np.float64(378530.04), np.float64(719087.315))", "snap_distance": 26.342671333162883 }, "geometry": { "type": "Point", "coordinates": [ 378504.663336449419148, 719080.246670635184273 ] } },
{ "type": "Feature", "properties": { "fclass": "pitch", "nearest_node": "(np.float64(378541.505), np.float64(718959.749))", "snap_distance": 27.97734910758567 }, "geometry": { "type": "Point", "coordinates": [ 378522.152534823806491, 718979.953310299781151 ] } },
{ "type": "Feature", "properties": { "fclass": "pitch", "nearest_node": "(np.float64(378561.242), np.float64(718979.981))", "snap_distance": 29.673740597683167 }, "geometry": { "type": "Point", "coordinates": [ 378534.854943228187039, 718993.555023573688231 ] } },
{ "type": "Feature", "properties": { "fclass": "pitch", "nearest_node": "(np.float64(378561.242), np.float64(718979.981))", "snap_distance": 30.091329962228873 }, "geometry": { "type": "Point", "coordinates": [ 378548.012052535137627, 719007.007961149443872 ] } },
{ "type": "Feature", "properties": { "fclass": "pitch", "nearest_node": "(np.float64(378557.368), np.float64(719053.729))", "snap_distance": 33.48126170374838 }, "geometry": { "type": "Point", "coordinates": [ 378561.160445156507194, 719020.463218106189743 ] } },
{ "type": "Feature", "properties": { "fclass": "police", "nearest_node": "(np.float64(378839.229), np.float64(718595.997))", "snap_distance": 30.955157432540194 }, "geometry": { "type": "Point", "coordinates": [ 378822.69569086068077, 718622.167048921925016 ] } },
{ "type": "Feature", "properties": { "fclass": "embassy", "nearest_node": "(np.float64(378891.561), np.float64(718676.544))", "snap_distance": 46.278196767292108 }, "geometry": { "type": "Point", "coordinates": [ 378907.723738041764591, 718719.908010366023518 ] } },
{ "type": "Feature", "properties": { "fclass": "stadium", "nearest_node": "(np.float64(377946.581), np.float64(719658.794))", "snap_distance": 49.733295079079568 }, "geometry": { "type": "Point", "coordinates": [ 377900.705438044213224, 719677.999037221074104 ] } },
{ "type": "Feature", "properties": { "fclass": "pitch", "nearest_node": "(np.float64(377962.455), np.float64(719728.532))", "snap_distance": 33.486358294571808 }, "geometry": { "type": "Point", "coordinates": [ 377931.147917657159269, 719716.649122107424773 ] } },
{ "type": "Feature", "properties": { "fclass": "tower", "nearest_node": "(np.float64(378763.989), np.float64(719058.445))", "snap_distance": 43.374430557987928 }, "geometry": { "type": "Point", "coordinates": [ 378753.238810600247234, 719016.42387847637292 ] } },
{ "type": "Feature", "properties": { "fclass": "pitch", "nearest_node": "(np.float64(378561.276), np.float64(719231.865))", "snap_distance": 70.363473063062244 }, "geometry": { "type": "Point", "coordinates": [ 378546.098153737722896, 719300.571996181854047 ] } },
{ "type": "Feature", "properties": { "fclass": "tower", "nearest_node": "(np.float64(378795.147), np.float64(719090.586))", "snap_distance": 40.137344826647151 }, "geometry": { "type": "Point", "coordinates": [ 378834.835997351736296, 719096.56846930179745 ] } },
{ "type": "Feature", "properties": { "fclass": "mall", "nearest_node": "(np.float64(378756.742), np.float64(718915.442))", "snap_distance": 8.9036175958947403 }, "geometry": { "type": "Point", "coordinates": [ 378761.085407119651791, 718923.214336900040507 ] } },
{ "type": "Feature", "properties": { "fclass": "museum", "nearest_node": "(np.float64(378880.117), np.float64(718891.625))", "snap_distance": 4.4763765022627826 }, "geometry": { "type": "Point", "coordinates": [ 378880.517188524769153, 718896.083452168037184 ] } },
{ "type": "Feature", "properties": { "fclass": "sports_centre", "nearest_node": "(np.float64(378545.279), np.float64(719066.567))", "snap_distance": 47.047270076003095 }, "geometry": { "type": "Point", "coordinates": [ 378507.614726889878511, 719038.373948503402062 ] } },
{ "type": "Feature", "properties": { "fclass": "hospital", "nearest_node": "(np.float64(378064.156), np.float64(719205.908))", "snap_distance": 62.593516126479471 }, "geometry": { "type": "Point", "coordinates": [ 378112.762916261563078, 719245.345494248787872 ] } },
{ "type": "Feature", "properties": { "fclass": "clinic", "nearest_node": "(np.float64(378548.34), np.float64(720288.175))", "snap_distance": 16.317313163722993 }, "geometry": { "type": "Point", "coordinates": [ 378540.758237045316491, 720302.623930042842403 ] } },
{ "type": "Feature", "properties": { "fclass": "mall", "nearest_node": "(np.float64(377041.397), np.float64(720388.095))", "snap_distance": 23.889995385327556 }, "geometry": { "type": "Point", "coordinates": [ 377027.682099070691038, 720368.533983359462582 ] } },
{ "type": "Feature", "properties": { "fclass": "pitch", "nearest_node": "(np.float64(376371.376), np.float64(720829.765))", "snap_distance": 55.866804659338278 }, "geometry": { "type": "Point", "coordinates": [ 376414.037219925783575, 720793.693956526229158 ] } },
{ "type": "Feature", "properties": { "fclass": "sports_centre", "nearest_node": "(np.float64(376363.54), np.float64(720820.433))", "snap_distance": 66.789099897819611 }, "geometry": { "type": "Point", "coordinates": [ 376417.048567587626167, 720780.462797850370407 ] } },
{ "type": "Feature", "properties": { "fclass": "hospital", "nearest_node": "(np.float64(379120.946), np.float64(718945.522))", "snap_distance": 24.973276179420751 }, "geometry": { "type": "Point", "coordinates": [ 379097.559672289004084, 718936.761623334139585 ] } },
{ "type": "Feature", "properties": { "fclass": "pitch", "nearest_node": "(np.float64(379083.13), np.float64(718865.377))", "snap_distance": 42.807172330395765 }, "geometry": { "type": "Point", "coordinates": [ 379070.440916946274228, 718906.260262763360515 ] } },
{ "type": "Feature", "properties": { "fclass": "water_tower", "nearest_node": "(np.float64(379083.13), np.float64(718865.377))", "snap_distance": 37.425135234999566 }, "geometry": { "type": "Point", "coordinates": [ 379051.874578187416773, 718885.961930281016976 ] } },
{ "type": "Feature", "properties": { "fclass": "courthouse", "nearest_node": "(np.float64(378644.699), np.float64(719486.157))", "snap_distance": 30.818256680053054 }, "geometry": { "type": "Point", "coordinates": [ 378670.834267858532257, 719469.825658390647732 ] } },
{ "type": "Feature", "properties": { "fclass": "courthouse", "nearest_node": "(np.float64(378541.761), np.float64(719517.772))", "snap_distance": 32.962083590584626 }, "geometry": { "type": "Point", "coordinates": [ 378563.519936893484555, 719493.012201537610963 ] } },
{ "type": "Feature", "properties": { "fclass": "hospital", "nearest_node": "(np.float64(378210.185), np.float64(719406.091))", "snap_distance": 45.313662362638411 }, "geometry": { "type": "Point", "coordinates": [ 378225.752966193307657, 719448.646451182197779 ] } },
{ "type": "Feature", "properties": { "fclass": "hospital", "nearest_node": "(np.float64(378196.293), np.float64(719383.842))", "snap_distance": 2.2193709340801702 }, "geometry": { "type": "Point", "coordinates": [ 378195.258138877747115, 719381.878668698132969 ] } },
{ "type": "Feature", "properties": { "fclass": "market_place", "nearest_node": "(np.float64(377059.275), np.float64(719960.779))", "snap_distance": 48.689224176928825 }, "geometry": { "type": "Point", "coordinates": [ 377030.369122631382197, 719921.598765129572712 ] } },
{ "type": "Feature", "properties": { "fclass": "pitch", "nearest_node": "(np.float64(377577.122), np.float64(720704.212))", "snap_distance": 52.818529302540973 }, "geometry": { "type": "Point", "coordinates": [ 377542.164766303147189, 720664.616686515393667 ] } },
{ "type": "Feature", "properties": { "fclass": "market_place", "nearest_node": "(np.float64(377533.674), np.float64(721197.699))", "snap_distance": 50.020850016521585 }, "geometry": { "type": "Point", "coordinates": [ 377583.430650886613876, 721202.833309001522139 ] } },
{ "type": "Feature", "properties": { "fclass": "graveyard", "nearest_node": "(np.float64(379116.76), np.float64(720001.424))", "snap_distance": 60.101021511956972 }, "geometry": { "type": "Point", "coordinates": [ 379176.794000838242937, 719998.586478170007467 ] } },
{ "type": "Feature", "properties": { "fclass": "graveyard", "nearest_node": "(np.float64(378672.172), np.float64(720104.592))", "snap_distance": 74.145039904999507 }, "geometry": { "type": "Point", "coordinates": [ 378681.615943621785846, 720031.050862727104686 ] } },
{ "type": "Feature", "properties": { "fclass": "market_place", "nearest_node": "(np.float64(378798.475), np.float64(720277.768))", "snap_distance": 52.381030604642561 }, "geometry": { "type": "Point", "coordinates": [ 378780.557813492196146, 720228.54659413988702 ] } },
{ "type": "Feature", "properties": { "fclass": "market_place", "nearest_node": "(np.float64(379017.196), np.float64(720152.227))", "snap_distance": 47.049705125981191 }, "geometry": { "type": "Point", "coordinates": [ 379004.45907080656616, 720197.51988450915087 ] } },
{ "type": "Feature", "properties": { "fclass": "pitch", "nearest_node": "(np.float64(379221.79), np.float64(720160.909))", "snap_distance": 25.458645276092547 }, "geometry": { "type": "Point", "coordinates": [ 379220.230146757676266, 720135.498185822623782 ] } },
{ "type": "Feature", "properties": { "fclass": "market_place", "nearest_node": "(np.float64(378727.12), np.float64(719753.716))", "snap_distance": 41.640117885606529 }, "geometry": { "type": "Point", "coordinates": [ 378762.781643140944652, 719732.218404180603102 ] } },
{ "type": "Feature", "properties": { "fclass": "hospital", "nearest_node": "(np.float64(377608.281), np.float64(720073.716))", "snap_distance": 30.750276128873491 }, "geometry": { "type": "Point", "coordinates": [ 377624.238465234811883, 720100.001714471611194 ] } },
{ "type": "Feature", "properties": { "fclass": "police", "nearest_node": "(np.float64(379377.125), np.float64(719274.682))", "snap_distance": 4.9225220477371199 }, "geometry": { "type": "Point", "coordinates": [ 379374.895901205425616, 719270.293111544568092 ] } },
{ "type": "Feature", "properties": { "fclass": "hotel", "nearest_node": "(np.float64(378468.78), np.float64(719586.558))", "snap_distance": 24.290683910018899 }, "geometry": { "type": "Point", "coordinates": [ 378469.515812239609659, 719610.837536757579073 ] } },
{ "type": "Feature", "properties": { "fclass": "pitch", "nearest_node": "(np.float64(378541.761), np.float64(719517.772))", "snap_distance": 44.69092372474779 }, "geometry": { "type": "Point", "coordinates": [ 378508.379649327311199, 719547.486711686942726 ] } },
{ "type": "Feature", "properties": { "fclass": "museum", "nearest_node": "(np.float64(378880.117), np.float64(718891.625))", "snap_distance": 33.414251721267824 }, "geometry": { "type": "Point", "coordinates": [ 378870.367544915468898, 718923.585293234675191 ] } },
{ "type": "Feature", "properties": { "fclass": "pitch", "nearest_node": "(np.float64(378991.203), np.float64(718768.731))", "snap_distance": 34.908296270271798 }, "geometry": { "type": "Point", "coordinates": [ 378956.352992135391105, 718770.747457371558994 ] } },
{ "type": "Feature", "properties": { "fclass": "pitch", "nearest_node": "(np.float64(379222.302), np.float64(718816.186))", "snap_distance": 26.486861059293389 }, "geometry": { "type": "Point", "coordinates": [ 379195.837903160019778, 718815.088098721578717 ] } },
{ "type": "Feature", "properties": { "fclass": "pitch", "nearest_node": "(np.float64(379219.33), np.float64(718839.645))", "snap_distance": 14.658243176122991 }, "geometry": { "type": "Point", "coordinates": [ 379206.663635065604467, 718832.267514496226795 ] } },
{ "type": "Feature", "properties": { "fclass": "market_place", "nearest_node": "(np.float64(379190.031), np.float64(718995.688))", "snap_distance": 31.061393902578132 }, "geometry": { "type": "Point", "coordinates": [ 379185.85726197657641, 719026.467702761408873 ] } },
{ "type": "Feature", "properties": { "fclass": "park", "nearest_node": "(np.float64(377288.282), np.float64(719946.081))", "snap_distance": 25.936040843686854 }, "geometry": { "type": "Point", "coordinates": [ 377304.283838028844912, 719966.492256559664384 ] } },
{ "type": "Feature", "properties": { "fclass": "market_place", "nearest_node": "(np.float64(377205.738), np.float64(720361.488))", "snap_distance": 49.873272967754403 }, "geometry": { "type": "Point", "coordinates": [ 377178.332744383544195, 720403.156877128058113 ] } },
{ "type": "Feature", "properties": { "fclass": "school", "nearest_node": "(np.float64(377424.637), np.float64(720661.707))", "snap_distance": 51.246699422552012 }, "geometry": { "type": "Point", "coordinates": [ 377475.380952690728009, 720668.867689004982822 ] } },
{ "type": "Feature", "properties": { "fclass": "pitch", "nearest_node": "(np.float64(378656.331), np.float64(718636.024))", "snap_distance": 90.153595689663931 }, "geometry": { "type": "Point", "coordinates": [ 378717.676673583278898, 718702.087447899626568 ] } },
{ "type": "Feature", "properties": { "fclass": "pitch", "nearest_node": "(np.float64(378626.342), np.float64(718589.522))", "snap_distance": 32.804846853142436 }, "geometry": { "type": "Point", "coordinates": [ 378604.623935443349183, 718564.935750815318897 ] } },
{ "type": "Feature", "properties": { "fclass": "community_centre", "nearest_node": "(np.float64(378810.153), np.float64(718839.174))", "snap_distance": 57.77729530070301 }, "geometry": { "type": "Point", "coordinates": [ 378797.770600616291631, 718782.739152274793014 ] } },
{ "type": "Feature", "properties": { "fclass": "swimming_pool", "nearest_node": "(np.float64(378707.85), np.float64(718811.951))", "snap_distance": 40.620514277982096 }, "geometry": { "type": "Point", "coordinates": [ 378747.475716836284846, 718803.016306641162373 ] } },
{ "type": "Feature", "properties": { "fclass": "theatre", "nearest_node": "(np.float64(375155.923), np.float64(722507.277))", "snap_distance": 66.712602052875667 }, "geometry": { "type": "Point", "coordinates": [ 375089.971553802897688, 722497.228218124830164 ] } },
{ "type": "Feature", "properties": { "fclass": "sports_centre", "nearest_node": "(np.float64(376482.674), np.float64(724040.792))", "snap_distance": 35.078052343449876 }, "geometry": { "type": "Point", "coordinates": [ 376448.899666085257195, 724031.317606888827868 ] } },
{ "type": "Feature", "properties": { "fclass": "pitch", "nearest_node": "(np.float64(376466.844), np.float64(724081.552))", "snap_distance": 17.022172577235942 }, "geometry": { "type": "Point", "coordinates": [ 376462.050591172359418, 724065.218672382528894 ] } },
{ "type": "Feature", "properties": { "fclass": "graveyard", "nearest_node": "(np.float64(376669.579), np.float64(723953.157))", "snap_distance": 22.655180941231617 }, "geometry": { "type": "Point", "coordinates": [ 376691.617587452987209, 723958.406560606206767 ] } },
{ "type": "Feature", "properties": { "fclass": "pitch", "nearest_node": "(np.float64(376409.748), np.float64(724020.301))", "snap_distance": 33.052625552809964 }, "geometry": { "type": "Point", "coordinates": [ 376441.752665862382855, 724028.557961848797277 ] } },
{ "type": "Feature", "properties": { "fclass": "park", "nearest_node": "(np.float64(376585.9), np.float64(722711.864))", "snap_distance": 45.574270121206723 }, "geometry": { "type": "Point", "coordinates": [ 376629.525754952454008, 722698.680388889508322 ] } },
{ "type": "Feature", "properties": { "fclass": "sports_centre", "nearest_node": "(np.float64(375577.524), np.float64(727271.308))", "snap_distance": 65.663607810512644 }, "geometry": { "type": "Point", "coordinates": [ 375611.025126259832177, 727214.833369146683253 ] } },
{ "type": "Feature", "properties": { "fclass": "pitch", "nearest_node": "(np.float64(377254.151), np.float64(727098.458))", "snap_distance": 59.528640421649534 }, "geometry": { "type": "Point", "coordinates": [ 377280.854955770075321, 727045.255013460875489 ] } },
{ "type": "Feature", "properties": { "fclass": "pitch", "nearest_node": "(np.float64(377213.174), np.float64(727020.655))", "snap_distance": 125.56828412816978 }, "geometry": { "type": "Point", "coordinates": [ 377281.279684785928112, 726915.16087846364826 ] } },
{ "type": "Feature", "properties": { "fclass": "pitch", "nearest_node": "(np.float64(377213.174), np.float64(727020.655))", "snap_distance": 79.047021600305115 }, "geometry": { "type": "Point", "coordinates": [ 377280.859515227668453, 726979.824831591802649 ] } },
{ "type": "Feature", "properties": { "fclass": "track", "nearest_node": "(np.float64(377213.174), np.float64(727020.655))", "snap_distance": 75.801550048273498 }, "geometry": { "type": "Point", "coordinates": [ 377279.789479949744418, 726984.485222273506224 ] } },
{ "type": "Feature", "properties": { "fclass": "pitch", "nearest_node": "(np.float64(376466.399), np.float64(724770.531))", "snap_distance": 32.386268728084723 }, "geometry": { "type": "Point", "coordinates": [ 376435.613395805121399, 724780.58669373462908 ] } },
{ "type": "Feature", "properties": { "fclass": "pitch", "nearest_node": "(np.float64(376339.35), np.float64(724815.907))", "snap_distance": 31.074493658270807 }, "geometry": { "type": "Point", "coordinates": [ 376367.883796981419437, 724803.600636364077218 ] } },
{ "type": "Feature", "properties": { "fclass": "park", "nearest_node": "(np.float64(377797.78), np.float64(725982.134))", "snap_distance": 86.808583023658102 }, "geometry": { "type": "Point", "coordinates": [ 377850.8459991379641, 726050.834289825172164 ] } },
{ "type": "Feature", "properties": { "fclass": "university", "nearest_node": "(np.float64(377855.711), np.float64(726804.019))", "snap_distance": 27.819935724607195 }, "geometry": { "type": "Point", "coordinates": [ 377863.932478383707348, 726777.441639015334658 ] } },
{ "type": "Feature", "properties": { "fclass": "water_works", "nearest_node": "(np.float64(378124.28), np.float64(727340.719))", "snap_distance": 26.189895676689535 }, "geometry": { "type": "Point", "coordinates": [ 378100.587834708974697, 727329.556924056145363 ] } },
{ "type": "Feature", "properties": { "fclass": "bookshop", "nearest_node": "(np.float64(378163.086), np.float64(727213.079))", "snap_distance": 38.600720438977298 }, "geometry": { "type": "Point", "coordinates": [ 378200.322650482528843, 727223.249913393170573 ] } },
{ "type": "Feature", "properties": { "fclass": "hotel", "nearest_node": "(np.float64(378329.631), np.float64(727579.138))", "snap_distance": 39.020576953859084 }, "geometry": { "type": "Point", "coordinates": [ 378367.881996804790106, 727586.849463496124372 ] } },
{ "type": "Feature", "properties": { "fclass": "college", "nearest_node": "(np.float64(375635.143), np.float64(727146.043))", "snap_distance": 67.422226704525613 }, "geometry": { "type": "Point", "coordinates": [ 375627.598842094943393, 727213.041823387378827 ] } },
{ "type": "Feature", "properties": { "fclass": "pitch", "nearest_node": "(np.float64(375623.053), np.float64(727296.238))", "snap_distance": 66.622073063017297 }, "geometry": { "type": "Point", "coordinates": [ 375640.503322153352201, 727231.941912436624989 ] } },
{ "type": "Feature", "properties": { "fclass": "market_place", "nearest_node": "(np.float64(374571.418), np.float64(723436.566))", "snap_distance": 27.655115511474129 }, "geometry": { "type": "Point", "coordinates": [ 374544.857540097844321, 723428.862274684361182 ] } },
{ "type": "Feature", "properties": { "fclass": "swimming_pool", "nearest_node": "(np.float64(377403.052), np.float64(727077.226))", "snap_distance": 32.98645169344649 }, "geometry": { "type": "Point", "coordinates": [ 377379.808618399780244, 727053.819778452976607 ] } },
{ "type": "Feature", "properties": { "fclass": "swimming_pool", "nearest_node": "(np.float64(377403.052), np.float64(727077.226))", "snap_distance": 28.609362305658973 }, "geometry": { "type": "Point", "coordinates": [ 377379.832101292966399, 727093.939225767971948 ] } },
{ "type": "Feature", "properties": { "fclass": "sports_centre", "nearest_node": "(np.float64(377403.052), np.float64(727077.226))", "snap_distance": 39.399406754049963 }, "geometry": { "type": "Point", "coordinates": [ 377368.232434192381334, 727058.789322166470811 ] } },
{ "type": "Feature", "properties": { "fclass": "pitch", "nearest_node": "(np.float64(377425.149), np.float64(727038.862))", "snap_distance": 90.879627724646355 }, "geometry": { "type": "Point", "coordinates": [ 377356.401843356143218, 726979.423500786419027 ] } },
{ "type": "Feature", "properties": { "fclass": "pitch", "nearest_node": "(np.float64(377417.68), np.float64(726898.371))", "snap_distance": 73.035615224405319 }, "geometry": { "type": "Point", "coordinates": [ 377356.005757632956374, 726937.492463669739664 ] } },
{ "type": "Feature", "properties": { "fclass": "pitch", "nearest_node": "(np.float64(377147.463), np.float64(726826.417))", "snap_distance": 104.63891627682402 }, "geometry": { "type": "Point", "coordinates": [ 377237.347500055504497, 726879.99012245296035 ] } },
{ "type": "Feature", "properties": { "fclass": "pitch", "nearest_node": "(np.float64(377147.463), np.float64(726826.417))", "snap_distance": 82.65564697260875 }, "geometry": { "type": "Point", "coordinates": [ 377204.602871835289989, 726886.141291733831167 ] } },
{ "type": "Feature", "properties": { "fclass": "pitch", "nearest_node": "(np.float64(377213.174), np.float64(727020.655))", "snap_distance": 100.67219004840601 }, "geometry": { "type": "Point", "coordinates": [ 377188.366914831625763, 726923.087083272286691 ] } },
{ "type": "Feature", "properties": { "fclass": "pitch", "nearest_node": "(np.float64(377213.174), np.float64(727020.655))", "snap_distance": 97.811770765865859 }, "geometry": { "type": "Point", "coordinates": [ 377207.675289773906115, 726922.997912770253606 ] } },
{ "type": "Feature", "properties": { "fclass": "sports_centre", "nearest_node": "(np.float64(377213.174), np.float64(727020.655))", "snap_distance": 99.368584767987841 }, "geometry": { "type": "Point", "coordinates": [ 377254.01547254511388, 726930.067529789521359 ] } },
{ "type": "Feature", "properties": { "fclass": "swimming_pool", "nearest_node": "(np.float64(378484.365), np.float64(727429.256))", "snap_distance": 60.254717508464168 }, "geometry": { "type": "Point", "coordinates": [ 378516.417724466125946, 727480.278091649874114 ] } },
{ "type": "Feature", "properties": { "fclass": "clinic", "nearest_node": "(np.float64(378118.558), np.float64(726762.339))", "snap_distance": 13.377248008856601 }, "geometry": { "type": "Point", "coordinates": [ 378105.459851489693392, 726759.620678846840747 ] } },
{ "type": "Feature", "properties": { "fclass": "pitch", "nearest_node": "(np.float64(377160.298), np.float64(726535.89))", "snap_distance": 51.176044821047654 }, "geometry": { "type": "Point", "coordinates": [ 377148.66482763615204, 726585.726300668087788 ] } },
{ "type": "Feature", "properties": { "fclass": "pitch", "nearest_node": "(np.float64(376984.29), np.float64(726797.151))", "snap_distance": 37.192848837342396 }, "geometry": { "type": "Point", "coordinates": [ 376948.8322075883043, 726785.923668975709006 ] } },
{ "type": "Feature", "properties": { "fclass": "pitch", "nearest_node": "(np.float64(376768.564), np.float64(727554.208))", "snap_distance": 37.651075928745058 }, "geometry": { "type": "Point", "coordinates": [ 376795.224930208059959, 727580.793678833404556 ] } },
{ "type": "Feature", "properties": { "fclass": "pitch", "nearest_node": "(np.float64(376882.544), np.float64(727612.214))", "snap_distance": 53.984728424177668 }, "geometry": { "type": "Point", "coordinates": [ 376838.893280619406141, 727580.449781127390452 ] } },
{ "type": "Feature", "properties": { "fclass": "university", "nearest_node": "(np.float64(376768.564), np.float64(727554.208))", "snap_distance": 7.8877441796173944 }, "geometry": { "type": "Point", "coordinates": [ 376764.822735016641673, 727547.263977781753056 ] } },
{ "type": "Feature", "properties": { "fclass": "park", "nearest_node": "(np.float64(376923.221), np.float64(727104.844))", "snap_distance": 57.450849747492605 }, "geometry": { "type": "Point", "coordinates": [ 376945.752507638477255, 727157.692191078327596 ] } },
{ "type": "Feature", "properties": { "fclass": "market_place", "nearest_node": "(np.float64(376680.778), np.float64(722567.148))", "snap_distance": 34.947602470683272 }, "geometry": { "type": "Point", "coordinates": [ 376708.644228776742239, 722546.057523186784238 ] } },
{ "type": "Feature", "properties": { "fclass": "shelter", "nearest_node": "(np.float64(376557.28), np.float64(721930.291))", "snap_distance": 21.466577263111855 }, "geometry": { "type": "Point", "coordinates": [ 376577.823725459515117, 721924.064501494518481 ] } },
{ "type": "Feature", "properties": { "fclass": "shelter", "nearest_node": "(np.float64(376574.869), np.float64(721821.53))", "snap_distance": 9.0740680171289299 }, "geometry": { "type": "Point", "coordinates": [ 376566.775749353226274, 721825.63341374322772 ] } },
{ "type": "Feature", "properties": { "fclass": "pitch", "nearest_node": "(np.float64(375799.584), np.float64(725574.08))", "snap_distance": 39.303442351623445 }, "geometry": { "type": "Point", "coordinates": [ 375819.321104218019173, 725608.068340615136549 ] } },
{ "type": "Feature", "properties": { "fclass": "park", "nearest_node": "(np.float64(377829.751), np.float64(725332.23))", "snap_distance": 78.599464779528518 }, "geometry": { "type": "Point", "coordinates": [ 377757.317850814084522, 725301.712549866642803 ] } },
{ "type": "Feature", "properties": { "fclass": "park", "nearest_node": "(np.float64(377640.908), np.float64(725193.536))", "snap_distance": 74.146931315290402 }, "geometry": { "type": "Point", "coordinates": [ 377692.090308121987619, 725247.18428756610956 ] } },
{ "type": "Feature", "properties": { "fclass": "park", "nearest_node": "(np.float64(377699.34), np.float64(725652.173))", "snap_distance": 19.204941650852508 }, "geometry": { "type": "Point", "coordinates": [ 377718.527381558611523, 725652.994080226169899 ] } },
{ "type": "Feature", "properties": { "fclass": "park", "nearest_node": "(np.float64(377808.11), np.float64(725569.061))", "snap_distance": 93.244711303890028 }, "geometry": { "type": "Point", "coordinates": [ 377861.547628876753151, 725645.474323485977948 ] } },
{ "type": "Feature", "properties": { "fclass": "bank", "nearest_node": "(np.float64(375592.229), np.float64(727086.929))", "snap_distance": 17.002392070924323 }, "geometry": { "type": "Point", "coordinates": [ 375605.844502036459744, 727097.112292219535448 ] } },
{ "type": "Feature", "properties": { "fclass": "school", "nearest_node": "(np.float64(375708.302), np.float64(726969.44))", "snap_distance": 25.44903704754406 }, "geometry": { "type": "Point", "coordinates": [ 375694.128187084395904, 726990.576615483034402 ] } },
{ "type": "Feature", "properties": { "fclass": "library", "nearest_node": "(np.float64(375744.792), np.float64(727088.8))", "snap_distance": 16.13709940278747 }, "geometry": { "type": "Point", "coordinates": [ 375740.570968750282191, 727104.37526475940831 ] } },
{ "type": "Feature", "properties": { "fclass": "hostel", "nearest_node": "(np.float64(375381.646), np.float64(727329.38))", "snap_distance": 16.723621934400601 }, "geometry": { "type": "Point", "coordinates": [ 375388.192432524112519, 727313.99092102132272 ] } },
{ "type": "Feature", "properties": { "fclass": "hostel", "nearest_node": "(np.float64(375683.667), np.float64(727302.053))", "snap_distance": 30.417428312611513 }, "geometry": { "type": "Point", "coordinates": [ 375682.079732396057807, 727332.428986020269804 ] } },
{ "type": "Feature", "properties": { "fclass": "hostel", "nearest_node": "(np.float64(375672.613), np.float64(727302.949))", "snap_distance": 57.552953165191767 }, "geometry": { "type": "Point", "coordinates": [ 375670.071749483875465, 727360.445821336936206 ] } },
{ "type": "Feature", "properties": { "fclass": "fire_station", "nearest_node": "(np.float64(375640.82), np.float64(727041.338))", "snap_distance": 13.821811485224485 }, "geometry": { "type": "Point", "coordinates": [ 375630.176509350421838, 727050.156082531088032 ] } },
{ "type": "Feature", "properties": { "fclass": "clinic", "nearest_node": "(np.float64(376783.938), np.float64(723779.835))", "snap_distance": 28.749361984647653 }, "geometry": { "type": "Point", "coordinates": [ 376809.025006858399138, 723793.876648813835345 ] } },
{ "type": "Feature", "properties": { "fclass": "school", "nearest_node": "(np.float64(376880.53), np.float64(723828.583))", "snap_distance": 31.847583512853316 }, "geometry": { "type": "Point", "coordinates": [ 376852.8027491212124, 723812.91557729197666 ] } },
{ "type": "Feature", "properties": { "fclass": "pitch", "nearest_node": "(np.float64(375547.1), np.float64(724606.943))", "snap_distance": 66.164362966091019 }, "geometry": { "type": "Point", "coordinates": [ 375587.871053716342431, 724659.052923292620108 ] } },
{ "type": "Feature", "properties": { "fclass": "swimming_pool", "nearest_node": "(np.float64(375729.497), np.float64(723991.227))", "snap_distance": 51.423812617405325 }, "geometry": { "type": "Point", "coordinates": [ 375759.124849951942451, 724033.257929222774692 ] } },
{ "type": "Feature", "properties": { "fclass": "school", "nearest_node": "(np.float64(375836.687), np.float64(724071.099))", "snap_distance": 67.976535917409393 }, "geometry": { "type": "Point", "coordinates": [ 375768.727480497094803, 724069.57809754810296 ] } },
{ "type": "Feature", "properties": { "fclass": "tower", "nearest_node": "(np.float64(376484.477), np.float64(723401.644))", "snap_distance": 16.506617534769273 }, "geometry": { "type": "Point", "coordinates": [ 376489.948438867635559, 723417.217431836179458 ] } },
{ "type": "Feature", "properties": { "fclass": "school", "nearest_node": "(np.float64(376652.269), np.float64(723495.587))", "snap_distance": 21.153510803817291 }, "geometry": { "type": "Point", "coordinates": [ 376653.178944554703776, 723474.453069456154481 ] } },
{ "type": "Feature", "properties": { "fclass": "supermarket", "nearest_node": "(np.float64(375830.341), np.float64(721876.896))", "snap_distance": 124.47542590079227 }, "geometry": { "type": "Point", "coordinates": [ 375742.488860483805183, 721965.0783861981472 ] } },
{ "type": "Feature", "properties": { "fclass": "market_place", "nearest_node": "(np.float64(376639.122), np.float64(721873.647))", "snap_distance": 6.5030781389794194 }, "geometry": { "type": "Point", "coordinates": [ 376636.152034156897571, 721867.861731797689572 ] } },
{ "type": "Feature", "properties": { "fclass": "school", "nearest_node": "(np.float64(376308.748), np.float64(727318.624))", "snap_distance": 61.822520513186625 }, "geometry": { "type": "Point", "coordinates": [ 376362.949081559025217, 727348.360623890999705 ] } },
{ "type": "Feature", "properties": { "fclass": "school", "nearest_node": "(np.float64(375069.183), np.float64(727665.133))", "snap_distance": 48.448995411123711 }, "geometry": { "type": "Point", "coordinates": [ 375051.126469110138714, 727620.174498595180921 ] } },
{ "type": "Feature", "properties": { "fclass": "school", "nearest_node": "(np.float64(375042.311), np.float64(727668.415))", "snap_distance": 38.728013409783394 }, "geometry": { "type": "Point", "coordinates": [ 375039.389478619385045, 727707.032660927274264 ] } },
{ "type": "Feature", "properties": { "fclass": "school", "nearest_node": "(np.float64(376823.489), np.float64(722461.556))", "snap_distance": 54.283152330001059 }, "geometry": { "type": "Point", "coordinates": [ 376822.474313985207118, 722515.829668009188026 ] } },
{ "type": "Feature", "properties": { "fclass": "school", "nearest_node": "(np.float64(377198.157), np.float64(724165.524))", "snap_distance": 56.577643634098678 }, "geometry": { "type": "Point", "coordinates": [ 377190.943127604201436, 724109.408139459090307 ] } },
{ "type": "Feature", "properties": { "fclass": "school", "nearest_node": "(np.float64(375640.063), np.float64(723290.908))", "snap_distance": 41.139267725936499 }, "geometry": { "type": "Point", "coordinates": [ 375664.233291622484103, 723324.198184017441235 ] } },
{ "type": "Feature", "properties": { "fclass": "hospital", "nearest_node": "(np.float64(375548.135), np.float64(726340.421))", "snap_distance": 14.266146297024743 }, "geometry": { "type": "Point", "coordinates": [ 375545.45064549340168, 726354.432322958600707 ] } },
{ "type": "Feature", "properties": { "fclass": "hospital", "nearest_node": "(np.float64(375495.259), np.float64(726242.832))", "snap_distance": 12.150822587421381 }, "geometry": { "type": "Point", "coordinates": [ 375498.839304351888131, 726254.443369871820323 ] } },
{ "type": "Feature", "properties": { "fclass": "hospital", "nearest_node": "(np.float64(377072.366), np.float64(724341.76))", "snap_distance": 26.487074222321478 }, "geometry": { "type": "Point", "coordinates": [ 377087.19089298491599, 724319.810338297742419 ] } },
{ "type": "Feature", "properties": { "fclass": "hospital", "nearest_node": "(np.float64(376314.281), np.float64(723354.948))", "snap_distance": 19.85000055072279 }, "geometry": { "type": "Point", "coordinates": [ 376334.112571320903953, 723355.803161276155151 ] } },
{ "type": "Feature", "properties": { "fclass": "pitch", "nearest_node": "(np.float64(377428.433), np.float64(726791.93))", "snap_distance": 121.80263892393702 }, "geometry": { "type": "Point", "coordinates": [ 377308.884693196741864, 726815.255633738590404 ] } },
{ "type": "Feature", "properties": { "fclass": "pitch", "nearest_node": "(np.float64(376653.994), np.float64(724824.276))", "snap_distance": 23.950316229529911 }, "geometry": { "type": "Point", "coordinates": [ 376649.304227918095421, 724800.789329624734819 ] } },
{ "type": "Feature", "properties": { "fclass": "pitch", "nearest_node": "(np.float64(376597.522), np.float64(724374.912))", "snap_distance": 27.310523124810121 }, "geometry": { "type": "Point", "coordinates": [ 376577.002473677392118, 724392.934588960721157 ] } }
]
}
